[
  {
    "OBJECT_NAME": "STARLINK-30455",
    "OBJECT_ID": "2023-148H",
    "EPOCH": "2023-10-22T14:00:01.000224",
    "MEAN_MOTION": 15.45196161,
    "ECCENTRICITY": 7.75e-5,
    "INCLINATION": 53.0546,
    "RA_OF_ASC_NODE": 90.086,
    "ARG_OF_PERICENTER": 93.7085,
    "MEAN_ANOMALY": 224.3353,
    "EPHEMERIS_TYPE": 0,
    "CLASSIFICATION_TYPE": "U",
    "NORAD_CAT_ID": 57942,
    "ELEMENT_SET_NO": 999,
    "REV_AT_EPOCH": 551,
    "BSTAR": -0.03623,
    "MEAN_MOTION_DOT": -0.01572569,
    "MEAN_MOTION_DDOT": 0
  },
  {
    "OBJECT_NAME": "STARLINK-30456",
    "OBJECT_ID": "2023-148J",
    "EPOCH": "2023-10-22T14:00:01.000224",
    "MEAN_MOTION": 15.4518198,
    "ECCENTRICITY": 0.0001217,
    "INCLINATION": 53.0547,
    "RA_OF_ASC_NODE": 90.0845,
    "ARG_OF_PERICENTER": 98.3427,
    "MEAN_ANOMALY": 220.283,
    "EPHEMERIS_TYPE": 0,
    "CLASSIFICATION_TYPE": "U",
    "NORAD_CAT_ID": 57943,
    "ELEMENT_SET_NO": 999,
    "REV_AT_EPOCH": 551,
    "BSTAR": -0.034904,
    "MEAN_MOTION_DOT": -0.01520005,
    "MEAN_MOTION_DDOT": 0
  },
  {
    "OBJECT_NAME": "STARLINK-30708",
    "OBJECT_ID": "2023-148K",
    "EPOCH": "2023-10-22T14:00:01.000224",
    "MEAN_MOTION": 15.45192558,
    "ECCENTRICITY": 0.0001236,
    "INCLINATION": 53.0547,
    "RA_OF_ASC_NODE": 90.0833,
    "ARG_OF_PERICENTER": 100.3106,
    "MEAN_ANOMALY": 218.8924,
    "EPHEMERIS_TYPE": 0,
    "CLASSIFICATION_TYPE": "U",
    "NORAD_CAT_ID": 57944,
    "ELEMENT_SET_NO": 999,
    "REV_AT_EPOCH": 557,
    "BSTAR": -0.035051,
    "MEAN_MOTION_DOT": -0.01526303,
    "MEAN_MOTION_DDOT": 0
  },
  {
    "OBJECT_NAME": "STARLINK-30705",
    "OBJECT_ID": "2023-148L",
    "EPOCH": "2023-10-22T14:00:01.000224",
    "MEAN_MOTION": 15.45202884,
    "ECCENTRICITY": 0.0001299,
    "INCLINATION": 53.0547,
    "RA_OF_ASC_NODE": 90.082,
    "ARG_OF_PERICENTER": 97.6926,
    "MEAN_ANOMALY": 222.088,
    "EPHEMERIS_TYPE": 0,
    "CLASSIFICATION_TYPE": "U",
    "NORAD_CAT_ID": 57945,
    "ELEMENT_SET_NO": 999,
    "REV_AT_EPOCH": 551,
    "BSTAR": -0.035199,
    "MEAN_MOTION_DOT": -0.01532645,
    "MEAN_MOTION_DDOT": 0
  },
  {
    "OBJECT_NAME": "STARLINK-30704",
    "OBJECT_ID": "2023-148M",
    "EPOCH": "2023-10-22T14:00:01.000224",
    "MEAN_MOTION": 15.64313368,
    "ECCENTRICITY": 0.0001605,
    "INCLINATION": 53.0564,
    "RA_OF_ASC_NODE": 89.3997,
    "ARG_OF_PERICENTER": 80.1336,
    "MEAN_ANOMALY": 223.0202,
    "EPHEMERIS_TYPE": 0,
    "CLASSIFICATION_TYPE": "U",
    "NORAD_CAT_ID": 57946,
    "ELEMENT_SET_NO": 999,
    "REV_AT_EPOCH": 552,
    "BSTAR": -0.00080736,
    "MEAN_MOTION_DOT": -0.000784,
    "MEAN_MOTION_DDOT": 0
  },
  {
    "OBJECT_NAME": "STARLINK-30706",
    "OBJECT_ID": "2023-148N",
    "EPOCH": "2023-10-22T14:00:01.000224",
    "MEAN_MOTION": 15.45222887,
    "ECCENTRICITY": 0.0001317,
    "INCLINATION": 53.0547,
    "RA_OF_ASC_NODE": 90.0794,
    "ARG_OF_PERICENTER": 95.8192,
    "MEAN_ANOMALY": 225.1165,
    "EPHEMERIS_TYPE": 0,
    "CLASSIFICATION_TYPE": "U",
    "NORAD_CAT_ID": 57947,
    "ELEMENT_SET_NO": 999,
    "REV_AT_EPOCH": 551,
    "BSTAR": -0.035468,
    "MEAN_MOTION_DOT": -0.01544191,
    "MEAN_MOTION_DDOT": 0
  },
  {
    "OBJECT_NAME": "STARLINK-30709",
    "OBJECT_ID": "2023-148P",
    "EPOCH": "2023-10-22T14:00:01.000224",
    "MEAN_MOTION": 15.45240904,
    "ECCENTRICITY": 0.0001394,
    "INCLINATION": 53.0546,
    "RA_OF_ASC_NODE": 90.0784,
    "ARG_OF_PERICENTER": 77.7943,
    "MEAN_ANOMALY": 243.7164,
    "EPHEMERIS_TYPE": 0,
    "CLASSIFICATION_TYPE": "U",
    "NORAD_CAT_ID": 57948,
    "ELEMENT_SET_NO": 999,
    "REV_AT_EPOCH": 551,
    "BSTAR": -0.036072,
    "MEAN_MOTION_DOT": -0.01568807,
    "MEAN_MOTION_DDOT": 0
  },
  {
    "OBJECT_NAME": "STARLINK-30707",
    "OBJECT_ID": "2023-148Q",
    "EPOCH": "2023-10-22T14:00:01.000224",
    "MEAN_MOTION": 15.45242561,
    "ECCENTRICITY": 0.0001141,
    "INCLINATION": 53.0547,
    "RA_OF_ASC_NODE": 90.077,
    "ARG_OF_PERICENTER": 90.4169,
    "MEAN_ANOMALY": 231.6735,
    "EPHEMERIS_TYPE": 0,
    "CLASSIFICATION_TYPE": "U",
    "NORAD_CAT_ID": 57949,
    "ELEMENT_SET_NO": 999,
    "REV_AT_EPOCH": 551,
    "BSTAR": -0.035726,
    "MEAN_MOTION_DOT": -0.0155521,
    "MEAN_MOTION_DDOT": 0
  },
  {
    "OBJECT_NAME": "STARLINK-30701",
    "OBJECT_ID": "2023-148R",
    "EPOCH": "2023-10-22T14:00:01.000224",
    "MEAN_MOTION": 15.45261921,
    "ECCENTRICITY": 0.0001345,
    "INCLINATION": 53.0546,
    "RA_OF_ASC_NODE": 90.0758,
    "ARG_OF_PERICENTER": 86.1279,
    "MEAN_ANOMALY": 236.5376,
    "EPHEMERIS_TYPE": 0,
    "CLASSIFICATION_TYPE": "U",
    "NORAD_CAT_ID": 57950,
    "ELEMENT_SET_NO": 999,
    "REV_AT_EPOCH": 551,
    "BSTAR": -0.036386,
    "MEAN_MOTION_DOT": -0.01582118,
    "MEAN_MOTION_DDOT": 0
  },
  {
    "OBJECT_NAME": "STARLINK-30399",
    "OBJECT_ID": "2023-148S",
    "EPOCH": "2023-10-22T14:00:01.000224",
    "MEAN_MOTION": 15.45274602,
    "ECCENTRICITY": 0.0001356,
    "INCLINATION": 53.0546,
    "RA_OF_ASC_NODE": 90.0744,
    "ARG_OF_PERICENTER": 91.6013,
    "MEAN_ANOMALY": 231.641,
    "EPHEMERIS_TYPE": 0,
    "CLASSIFICATION_TYPE": "U",
    "NORAD_CAT_ID": 57951,
    "ELEMENT_SET_NO": 999,
    "REV_AT_EPOCH": 551,
    "BSTAR": -0.036637,
    "MEAN_MOTION_DOT": -0.01592571,
    "MEAN_MOTION_DDOT": 0
  },
  {
    "OBJECT_NAME": "STARLINK-30713",
    "OBJECT_ID": "2023-148T",
    "EPOCH": "2023-10-22T14:00:01.000224",
    "MEAN_MOTION": 15.45285633,
    "ECCENTRICITY": 0.0001293,
    "INCLINATION": 53.0546,
    "RA_OF_ASC_NODE": 90.0732,
    "ARG_OF_PERICENTER": 83.4462,
    "MEAN_ANOMALY": 240.3732,
    "EPHEMERIS_TYPE": 0,
    "CLASSIFICATION_TYPE": "U",
    "NORAD_CAT_ID": 57952,
    "ELEMENT_SET_NO": 999,
    "REV_AT_EPOCH": 551,
    "BSTAR": -0.036858,
    "MEAN_MOTION_DOT": -0.01601731,
    "MEAN_MOTION_DDOT": 0
  },
  {
    "OBJECT_NAME": "STARLINK-30700",
    "OBJECT_ID": "2023-148U",
    "EPOCH": "2023-10-22T14:00:01.000224",
    "MEAN_MOTION": 15.84998463,
    "ECCENTRICITY": 7.55e-5,
    "INCLINATION": 53.0524,
    "RA_OF_ASC_NODE": 87.7254,
    "ARG_OF_PERICENTER": 108.835,
    "MEAN_ANOMALY": 287.3014,
    "EPHEMERIS_TYPE": 0,
    "CLASSIFICATION_TYPE": "U",
    "NORAD_CAT_ID": 57953,
    "ELEMENT_SET_NO": 999,
    "REV_AT_EPOCH": 551,
    "BSTAR": -0.004026,
    "MEAN_MOTION_DOT": -0.00874913,
    "MEAN_MOTION_DDOT": 0
  },
  {
    "OBJECT_NAME": "STARLINK-30703",
    "OBJECT_ID": "2023-148V",
    "EPOCH": "2023-10-22T14:00:01.000224",
    "MEAN_MOTION": 15.84996076,
    "ECCENTRICITY": 6.64e-5,
    "INCLINATION": 53.0525,
    "RA_OF_ASC_NODE": 87.6728,
    "ARG_OF_PERICENTER": 75.5352,
    "MEAN_ANOMALY": 346.3031,
    "EPHEMERIS_TYPE": 0,
    "CLASSIFICATION_TYPE": "U",
    "NORAD_CAT_ID": 57954,
    "ELEMENT_SET_NO": 999,
    "REV_AT_EPOCH": 552,
    "BSTAR": -0.0040113,
    "MEAN_MOTION_DOT": -0.00871893,
    "MEAN_MOTION_DDOT": 0
  },
  {
    "OBJECT_NAME": "STARLINK-30702",
    "OBJECT_ID": "2023-148W",
    "EPOCH": "2023-10-22T14:00:01.000224",
    "MEAN_MOTION": 15.84999279,
    "ECCENTRICITY": 9.53e-5,
    "INCLINATION": 53.0525,
    "RA_OF_ASC_NODE": 87.7148,
    "ARG_OF_PERICENTER": 89.9431,
    "MEAN_ANOMALY": 311.3333,
    "EPHEMERIS_TYPE": 0,
    "CLASSIFICATION_TYPE": "U",
    "NORAD_CAT_ID": 57955,
    "ELEMENT_SET_NO": 999,
    "REV_AT_EPOCH": 551,
    "BSTAR": -0.0040346,
    "MEAN_MOTION_DOT": -0.00876706,
    "MEAN_MOTION_DDOT": 0
  }
]
