STARLINK-30455          
1 57942U 23148H   23295.58334491 -.01572569  00000+0 -36230-1 0  9994
2 57942  53.0546  90.0860 0000775  93.7085 224.3353 15.45196161  5518
STARLINK-30456          
1 57943U 23148J   23295.58334491 -.01520005  00000+0 -34904-1 0  9999
2 57943  53.0547  90.0845 0001217  98.3427 220.2830 15.45181980  5514
STARLINK-30708          
1 57944U 23148K   23295.58334491 -.01526303  00000+0 -35051-1 0  9991
2 57944  53.0547  90.0833 0001236 100.3106 218.8924 15.45192558  5577
STARLINK-30705          
1 57945U 23148L   23295.58334491 -.01532645  00000+0 -35199-1 0  9991
2 57945  53.0547  90.0820 0001299  97.6926 222.0880 15.45202884  5517
STARLINK-30704          
1 57946U 23148M   23295.58334491 -.00078400  00000+0 -80736-3 0  9994
2 57946  53.0564  89.3997 0001605  80.1336 223.0202 15.64313368  5527
STARLINK-30706          
1 57947U 23148N   23295.58334491 -.01544191  00000+0 -35468-1 0  9991
2 57947  53.0547  90.0794 0001317  95.8192 225.1165 15.45222887  5510
STARLINK-30709          
1 57948U 23148P   23295.58334491 -.01568807  00000+0 -36072-1 0  9994
2 57948  53.0546  90.0784 0001394  77.7943 243.7164 15.45240904  5512
STARLINK-30707          
1 57949U 23148Q   23295.58334491 -.01555210  00000+0 -35726-1 0  9994
2 57949  53.0547  90.0770 0001141  90.4169 231.6735 15.45242561  5512
STARLINK-30701          
1 57950U 23148R   23295.58334491 -.01582118  00000+0 -36386-1 0  9996
2 57950  53.0546  90.0758 0001345  86.1279 236.5376 15.45261921  5515
STARLINK-30399          
1 57951U 23148S   23295.58334491 -.01592571  00000+0 -36637-1 0  9990
2 57951  53.0546  90.0744 0001356  91.6013 231.6410 15.45274602  5515
STARLINK-30713          
1 57952U 23148T   23295.58334491 -.01601731  00000+0 -36858-1 0  9995
2 57952  53.0546  90.0732 0001293  83.4462 240.3732 15.45285633  5510
STARLINK-30700          
1 57953U 23148U   23295.58334491 -.00874913  00000+0 -40260-2 0  9992
2 57953  53.0524  87.7254 0000755 108.8350 287.3014 15.84998463  5518
STARLINK-30703          
1 57954U 23148V   23295.58334491 -.00871893  00000+0 -40113-2 0  9994
2 57954  53.0525  87.6728 0000664  75.5352 346.3031 15.84996076  5520
STARLINK-30702          
1 57955U 23148W   23295.58334491 -.00876706  00000+0 -40346-2 0  9991
2 57955  53.0525  87.7148 0000953  89.9431 311.3333 15.84999279  5510
